[{"OBJECT_NAME":"LEMUR-2-TOMATOKECHUP","OBJECT_ID":"2024-149D","EPOCH":"2026-04-27T11:19:11.671968","MEAN_MOTION":15.34973305,"ECCENTRICITY":0.0003049,"INCLINATION":97.38,"RA_OF_ASC_NODE":199.4316,"ARG_OF_PERICENTER":80.628,"MEAN_ANOMALY":279.5308,"EPHEMERIS_TYPE":0,"CLASSIFICATION_TYPE":"U","NORAD_CAT_ID":60471,"ELEMENT_SET_NO":999,"REV_AT_EPOCH":9438,"BSTAR":0.00040512,"MEAN_MOTION_DOT":0.00013674,"MEAN_MOTION_DDOT":0},{"OBJECT_NAME":"CONNECTA IOT-1","OBJECT_ID":"2024-149E","EPOCH":"2026-04-27T10:49:03.636192","MEAN_MOTION":15.23140411,"ECCENTRICITY":0.0003677,"INCLINATION":97.377,"RA_OF_ASC_NODE":194.6119,"ARG_OF_PERICENTER":96.6147,"MEAN_ANOMALY":263.5508,"EPHEMERIS_TYPE":0,"CLASSIFICATION_TYPE":"U","NORAD_CAT_ID":60472,"ELEMENT_SET_NO":999,"REV_AT_EPOCH":9407,"BSTAR":0.00022119,"MEAN_MOTION_DOT":5.154e-5,"MEAN_MOTION_DDOT":0},{"OBJECT_NAME":"LOPEN","OBJECT_ID":"2024-149F","EPOCH":"2026-04-27T05:13:26.459904","MEAN_MOTION":15.38207903,"ECCENTRICITY":0.00028612,"INCLINATION":97.378,"RA_OF_ASC_NODE":200.2465,"ARG_OF_PERICENTER":94.2524,"MEAN_ANOMALY":265.9048,"EPHEMERIS_TYPE":0,"CLASSIFICATION_TYPE":"U","NORAD_CAT_ID":60473,"ELEMENT_SET_NO":999,"REV_AT_EPOCH":9442,"BSTAR":0.00050404106,"MEAN_MOTION_DOT":0.00018912,"MEAN_MOTION_DDOT":0},{"OBJECT_NAME":"ROCK","OBJECT_ID":"2024-149G","EPOCH":"2026-04-27T04:54:11.834496","MEAN_MOTION":15.38215975,"ECCENTRICITY":0.000305,"INCLINATION":97.3774,"RA_OF_ASC_NODE":200.251,"ARG_OF_PERICENTER":89.2436,"MEAN_ANOMALY":270.9159,"EPHEMERIS_TYPE":0,"CLASSIFICATION_TYPE":"U","NORAD_CAT_ID":60474,"ELEMENT_SET_NO":999,"REV_AT_EPOCH":9442,"BSTAR":0.00049622732,"MEAN_MOTION_DOT":0.00018622,"MEAN_MOTION_DDOT":0},{"OBJECT_NAME":"CONNECTA IOT-3","OBJECT_ID":"2024-149H","EPOCH":"2026-04-27T11:20:22.399872","MEAN_MOTION":15.23149118,"ECCENTRICITY":0.0004661,"INCLINATION":97.3744,"RA_OF_ASC_NODE":194.4017,"ARG_OF_PERICENTER":89.0084,"MEAN_ANOMALY":271.1687,"EPHEMERIS_TYPE":0,"CLASSIFICATION_TYPE":"U","NORAD_CAT_ID":60475,"ELEMENT_SET_NO":999,"REV_AT_EPOCH":9408,"BSTAR":0.00022535,"MEAN_MOTION_DOT":5.254e-5,"MEAN_MOTION_DDOT":0},{"OBJECT_NAME":"QUBE","OBJECT_ID":"2024-149J","EPOCH":"2026-04-27T11:50:40.114176","MEAN_MOTION":15.44846067,"ECCENTRICITY":0.0002881,"INCLINATION":97.3776,"RA_OF_ASC_NODE":203.0441,"ARG_OF_PERICENTER":81.7098,"MEAN_ANOMALY":278.4478,"EPHEMERIS_TYPE":0,"CLASSIFICATION_TYPE":"U","NORAD_CAT_ID":60476,"ELEMENT_SET_NO":999,"REV_AT_EPOCH":9463,"BSTAR":0.00054564,"MEAN_MOTION_DOT":0.00025554,"MEAN_MOTION_DDOT":0},{"OBJECT_NAME":"WREN-1","OBJECT_ID":"2024-149L","EPOCH":"2026-04-27T12:50:00.101760","MEAN_MOTION":15.39576352,"ECCENTRICITY":0.0005628,"INCLINATION":97.3768,"RA_OF_ASC_NODE":201.1941,"ARG_OF_PERICENTER":92.9616,"MEAN_ANOMALY":267.2274,"EPHEMERIS_TYPE":0,"CLASSIFICATION_TYPE":"U","NORAD_CAT_ID":60478,"ELEMENT_SET_NO":999,"REV_AT_EPOCH":9452,"BSTAR":0.00055969,"MEAN_MOTION_DOT":0.00021986,"MEAN_MOTION_DDOT":0},{"OBJECT_NAME":"TOMORROW-S1","OBJECT_ID":"2024-149M","EPOCH":"2026-04-27T12:39:59.076576","MEAN_MOTION":15.32001006,"ECCENTRICITY":0.0004183,"INCLINATION":97.3756,"RA_OF_ASC_NODE":198.1876,"ARG_OF_PERICENTER":81.764,"MEAN_ANOMALY":278.4076,"EPHEMERIS_TYPE":0,"CLASSIFICATION_TYPE":"U","NORAD_CAT_ID":60479,"ELEMENT_SET_NO":999,"REV_AT_EPOCH":9433,"BSTAR":0.00027134,"MEAN_MOTION_DOT":8.308e-5,"MEAN_MOTION_DDOT":0},{"OBJECT_NAME":"FLOCK 4BE-18","OBJECT_ID":"2024-149N","EPOCH":"2026-04-26T18:46:22.215648","MEAN_MOTION":15.4018489,"ECCENTRICITY":0.00050228,"INCLINATION":97.3729,"RA_OF_ASC_NODE":200.041,"ARG_OF_PERICENTER":92.322,"MEAN_ANOMALY":267.8601,"EPHEMERIS_TYPE":0,"CLASSIFICATION_TYPE":"U","NORAD_CAT_ID":60480,"ELEMENT_SET_NO":999,"REV_AT_EPOCH":9439,"BSTAR":0.00058053977,"MEAN_MOTION_DOT":0.0002327,"MEAN_MOTION_DDOT":0},{"OBJECT_NAME":"FLOCK 4BE-7","OBJECT_ID":"2024-149P","EPOCH":"2026-04-27T04:27:42.768288","MEAN_MOTION":15.38208812,"ECCENTRICITY":0.00041918,"INCLINATION":97.3764,"RA_OF_ASC_NODE":199.9044,"ARG_OF_PERICENTER":96.6265,"MEAN_ANOMALY":263.5457,"EPHEMERIS_TYPE":0,"CLASSIFICATION_TYPE":"U","NORAD_CAT_ID":60481,"ELEMENT_SET_NO":999,"REV_AT_EPOCH":9440,"BSTAR":0.0007449706,"MEAN_MOTION_DOT":0.00028029,"MEAN_MOTION_DDOT":0},{"OBJECT_NAME":"FLOCK 4BE-26","OBJECT_ID":"2024-149S","EPOCH":"2026-04-27T12:04:05.136672","MEAN_MOTION":15.55613603,"ECCENTRICITY":0.000263,"INCLINATION":97.3685,"RA_OF_ASC_NODE":201.457,"ARG_OF_PERICENTER":140.9259,"MEAN_ANOMALY":219.2186,"EPHEMERIS_TYPE":0,"CLASSIFICATION_TYPE":"U","NORAD_CAT_ID":60484,"ELEMENT_SET_NO":999,"REV_AT_EPOCH":9455,"BSTAR":0.0021898,"MEAN_MOTION_DOT":0.00152709,"MEAN_MOTION_DDOT":0},{"OBJECT_NAME":"TOMORROW-S2","OBJECT_ID":"2024-149T","EPOCH":"2026-04-27T11:50:42.093600","MEAN_MOTION":15.32007813,"ECCENTRICITY":0.0004568,"INCLINATION":97.382,"RA_OF_ASC_NODE":198.595,"ARG_OF_PERICENTER":96.786,"MEAN_ANOMALY":263.3901,"EPHEMERIS_TYPE":0,"CLASSIFICATION_TYPE":"U","NORAD_CAT_ID":60485,"ELEMENT_SET_NO":999,"REV_AT_EPOCH":9432,"BSTAR":0.00029276,"MEAN_MOTION_DOT":8.974e-5,"MEAN_MOTION_DDOT":0},{"OBJECT_NAME":"FLOCK 4BE-36","OBJECT_ID":"2024-149U","EPOCH":"2026-04-27T11:56:22.960608","MEAN_MOTION":15.41113908,"ECCENTRICITY":0.0005118,"INCLINATION":97.3744,"RA_OF_ASC_NODE":201.3826,"ARG_OF_PERICENTER":98.455,"MEAN_ANOMALY":261.7277,"EPHEMERIS_TYPE":0,"CLASSIFICATION_TYPE":"U","NORAD_CAT_ID":60486,"ELEMENT_SET_NO":999,"REV_AT_EPOCH":9454,"BSTAR":0.00045503,"MEAN_MOTION_DOT":0.00018778,"MEAN_MOTION_DDOT":0},{"OBJECT_NAME":"FLOCK 4BE-25","OBJECT_ID":"2024-149V","EPOCH":"2026-04-27T11:23:39.303744","MEAN_MOTION":15.37506231,"ECCENTRICITY":0.0003691,"INCLINATION":97.3801,"RA_OF_ASC_NODE":200.3339,"ARG_OF_PERICENTER":96.0691,"MEAN_ANOMALY":264.0975,"EPHEMERIS_TYPE":0,"CLASSIFICATION_TYPE":"U","NORAD_CAT_ID":60487,"ELEMENT_SET_NO":999,"REV_AT_EPOCH":9444,"BSTAR":0.00049209,"MEAN_MOTION_DOT":0.00018046,"MEAN_MOTION_DDOT":0},{"OBJECT_NAME":"FLOCK 4BE-31","OBJECT_ID":"2024-149W","EPOCH":"2026-04-27T12:03:42.890400","MEAN_MOTION":15.42152468,"ECCENTRICITY":0.0004023,"INCLINATION":97.3803,"RA_OF_ASC_NODE":202.1149,"ARG_OF_PERICENTER":102.112,"MEAN_ANOMALY":258.0578,"EPHEMERIS_TYPE":0,"CLASSIFICATION_TYPE":"U","NORAD_CAT_ID":60488,"ELEMENT_SET_NO":999,"REV_AT_EPOCH":9456,"BSTAR":0.00049447,"MEAN_MOTION_DOT":0.00021133,"MEAN_MOTION_DDOT":0},{"OBJECT_NAME":"FLOCK 4BE-20","OBJECT_ID":"2024-149X","EPOCH":"2026-04-27T05:12:39.892032","MEAN_MOTION":15.36710976,"ECCENTRICITY":0.0005256,"INCLINATION":97.3703,"RA_OF_ASC_NODE":199.0836,"ARG_OF_PERICENTER":97.4528,"MEAN_ANOMALY":262.7313,"EPHEMERIS_TYPE":0,"CLASSIFICATION_TYPE":"U","NORAD_CAT_ID":60489,"ELEMENT_SET_NO":999,"REV_AT_EPOCH":9438,"BSTAR":0.00050206,"MEAN_MOTION_DOT":0.0001795,"MEAN_MOTION_DDOT":0},{"OBJECT_NAME":"FLOCK 4BE-23","OBJECT_ID":"2024-149Y","EPOCH":"2026-04-27T04:41:06.673632","MEAN_MOTION":15.36339639,"ECCENTRICITY":0.00050987,"INCLINATION":97.3781,"RA_OF_ASC_NODE":199.4093,"ARG_OF_PERICENTER":103.7132,"MEAN_ANOMALY":256.468,"EPHEMERIS_TYPE":0,"CLASSIFICATION_TYPE":"U","NORAD_CAT_ID":60490,"ELEMENT_SET_NO":999,"REV_AT_EPOCH":9436,"BSTAR":0.0004428878,"MEAN_MOTION_DOT":0.00015632,"MEAN_MOTION_DDOT":0}]
